0 SL-3 R/B
1 12457U 81043B   13282.47029441  .00000295  00000-0  16627-3 0  3223
2 12457 081.2760 338.2976 0062310 015.9977 344.3140 14.07043945663284
0 SL-3 R/B
1 12457U 81043B   13283.82138545  .00000317  00000-0  17918-3 0  3239
2 12457 081.2759 336.9936 0062246 012.2230 348.0431 14.07044588663472
0 SL-3 R/B
1 12457U 81043B   13286.16801566  .00000323  00000-0  18283-3 0  3254
2 12457 081.2755 334.7287 0062109 005.6336 354.5517 14.07045782663805
0 SL-3 R/B
1 12457U 81043B   13287.51910457  .00000348  00000-0  19760-3 0  3263
2 12457 081.2753 333.4246 0062031 001.8225 358.3158 14.07046771663995
0 SL-3 R/B
1 12457U 81043B   13288.79908288  .00000349  00000-0  19833-3 0  3276
2 12457 081.2751 332.1890 0061960 358.2156 001.8781 14.07047918664173
0 SL-3 R/B
1 12457U 81043B   13290.50571950  .00000299  00000-0  16875-3 0  3288
2 12457 081.2750 330.5412 0061823 353.4363 006.5989 14.07049128664413
0 SL-3 R/B
1 12457U 81043B   13292.14124520  .00000269  00000-0  15141-3 0  3290
2 12457 081.2749 328.9623 0061709 348.8784 011.1016 14.07050286664649
0 SL-3 R/B
1 12457U 81043B   13293.49233062  .00000245  00000-0  13681-3 0  3304
2 12457 081.2751 327.6582 0061567 345.1008 014.8345 14.07051025664831
0 SL-3 R/B
1 12457U 81043B   13294.77230591  .00000204  00000-0  11310-3 0  3313
2 12457 081.2751 326.4225 0061459 341.5050 018.3884 14.07051584665017
0 SL-3 R/B
1 12457U 81043B   13296.19450053  .00000128  00000-0  68477-4 0  3321
2 12457 081.2752 325.0497 0061405 337.4904 022.3573 14.07051852665217
